1998-067XK              
1 65731U 98067XK  26029.99401262  .00227675  00000+0  11816-2 0  9991
2 65731  51.6242 250.2341 0003929 181.0635 179.0358 15.79790369 20739
RSP-03                  
1 65732U 98067XL  26030.01908854  .00452268  88678-4  14273-2 0  9996
2 65732  51.6193 247.3485 0005454 204.6717 155.4029 15.90730226 20786
YOTSUBA-KULOVER         
1 65941U 98067XN  26030.03568467  .00126137  00000+0  10818-2 0  9994
2 65941  51.6256 255.7902 0004452 188.8633 171.2286 15.68475668 17410
BOTAN                   
1 65942U 98067XP  26029.98267588  .00273998  00000+0  14814-2 0  9995
2 65942  51.6204 253.1574 0005487 202.4121 157.6641 15.78748703 17445
E-KAGAKU-1              
1 65943U 98067XQ  26030.03596720  .00123967  00000+0  10667-2 0  9999
2 65943  51.6269 255.8011 0003365 198.3757 161.7119 15.68410128 17412
HRC MONOBLOCK CAMERA    
1 66052U 98067XR  26030.01187900  .00050362  00000+0  65514-3 0  9995
2 66052  51.6287 260.1380 0000297  44.3397 315.7619 15.58259127 16350
HTV-X1                  
1 66174U 25241A   26030.04787889  .00010491  00000+0  20300-3 0  9992
2 66174  51.6320 263.3752 0011112  44.5726 315.6154 15.48278961   517
SHENZHOU-22             
1 66645U 25272A   26030.17114424  .00032690  00000+0  37481-3 0  9995
2 66645  41.4674  82.2287 0009086  36.5911 323.5548 15.61350410267643
DUPLEX                  
1 66906U 98067XS  26029.95842852  .00036265  00000+0  56511-3 0  9991
2 66906  51.6306 262.7795 0001588  77.7808 282.3361 15.53508379  9108
1998-067XT              
1 66907U 98067XT  26030.05246281  .00111088  00000+0  13574-2 0  9997
2 66907  51.6279 261.1573 0003000 153.2105 206.9043 15.59567514  9130
