CCSDS_OMM_VERS = 2.0
CREATION_DATE  = 
ORIGINATOR     = 

OBJECT_NAME    = 1998-067XK
OBJECT_ID      = 1998-067XK
CENTER_NAME    = EARTH
REF_FRAME      = TEME
TIME_SYSTEM    = UTC
MEAN_ELEMENT_THEORY = SGP/SGP4

EPOCH          = 2026-01-29T23:51:22.690368
MEAN_MOTION    = 15.79790369
ECCENTRICITY   = .0003929
INCLINATION    = 51.6242
RA_OF_ASC_NODE = 250.2341
ARG_OF_PERICENTER = 181.0635
MEAN_ANOMALY   = 179.0358

EPHEMERIS_TYPE = 0
CLASSIFICATION_TYPE = U
NORAD_CAT_ID   = 65731
ELEMENT_SET_NO = 999
REV_AT_EPOCH   = 2073
BSTAR          = .11816451E-2
MEAN_MOTION_DOT = .227675E-2
MEAN_MOTION_DDOT = 0

CCSDS_OMM_VERS = 2.0
CREATION_DATE  = 
ORIGINATOR     = 

OBJECT_NAME    = RSP-03
OBJECT_ID      = 1998-067XL
CENTER_NAME    = EARTH
REF_FRAME      = TEME
TIME_SYSTEM    = UTC
MEAN_ELEMENT_THEORY = SGP/SGP4

EPOCH          = 2026-01-30T00:27:29.249856
MEAN_MOTION    = 15.90730226
ECCENTRICITY   = .0005454
INCLINATION    = 51.6193
RA_OF_ASC_NODE = 247.3485
ARG_OF_PERICENTER = 204.6717
MEAN_ANOMALY   = 155.4029

EPHEMERIS_TYPE = 0
CLASSIFICATION_TYPE = U
NORAD_CAT_ID   = 65732
ELEMENT_SET_NO = 999
REV_AT_EPOCH   = 2078
BSTAR          = .14273074E-2
MEAN_MOTION_DOT = .452268E-2
MEAN_MOTION_DDOT = .88677607E-4

CCSDS_OMM_VERS = 2.0
CREATION_DATE  = 
ORIGINATOR     = 

OBJECT_NAME    = YOTSUBA-KULOVER
OBJECT_ID      = 1998-067XN
CENTER_NAME    = EARTH
REF_FRAME      = TEME
TIME_SYSTEM    = UTC
MEAN_ELEMENT_THEORY = SGP/SGP4

EPOCH          = 2026-01-30T00:51:23.155488
MEAN_MOTION    = 15.68475668
ECCENTRICITY   = .00044524
INCLINATION    = 51.6256
RA_OF_ASC_NODE = 255.7902
ARG_OF_PERICENTER = 188.8633
MEAN_ANOMALY   = 171.2286

EPHEMERIS_TYPE = 0
CLASSIFICATION_TYPE = U
NORAD_CAT_ID   = 65941
ELEMENT_SET_NO = 999
REV_AT_EPOCH   = 1741
BSTAR          = .10818432E-2
MEAN_MOTION_DOT = .126137E-2
MEAN_MOTION_DDOT = 0

CCSDS_OMM_VERS = 2.0
CREATION_DATE  = 
ORIGINATOR     = 

OBJECT_NAME    = BOTAN
OBJECT_ID      = 1998-067XP
CENTER_NAME    = EARTH
REF_FRAME      = TEME
TIME_SYSTEM    = UTC
MEAN_ELEMENT_THEORY = SGP/SGP4

EPOCH          = 2026-01-29T23:35:03.196032
MEAN_MOTION    = 15.78748703
ECCENTRICITY   = .00054878
INCLINATION    = 51.6204
RA_OF_ASC_NODE = 253.1574
ARG_OF_PERICENTER = 202.4121
MEAN_ANOMALY   = 157.6641

EPHEMERIS_TYPE = 0
CLASSIFICATION_TYPE = U
NORAD_CAT_ID   = 65942
ELEMENT_SET_NO = 999
REV_AT_EPOCH   = 1744
BSTAR          = .14813972E-2
MEAN_MOTION_DOT = .273998E-2
MEAN_MOTION_DDOT = 0

CCSDS_OMM_VERS = 2.0
CREATION_DATE  = 
ORIGINATOR     = 

OBJECT_NAME    = E-KAGAKU-1
OBJECT_ID      = 1998-067XQ
CENTER_NAME    = EARTH
REF_FRAME      = TEME
TIME_SYSTEM    = UTC
MEAN_ELEMENT_THEORY = SGP/SGP4

EPOCH          = 2026-01-30T00:51:47.566080
MEAN_MOTION    = 15.68410128
ECCENTRICITY   = .00033651
INCLINATION    = 51.6269
RA_OF_ASC_NODE = 255.8011
ARG_OF_PERICENTER = 198.3757
MEAN_ANOMALY   = 161.7119

EPHEMERIS_TYPE = 0
CLASSIFICATION_TYPE = U
NORAD_CAT_ID   = 65943
ELEMENT_SET_NO = 999
REV_AT_EPOCH   = 1741
BSTAR          = .10666556E-2
MEAN_MOTION_DOT = .123967E-2
MEAN_MOTION_DDOT = 0

CCSDS_OMM_VERS = 2.0
CREATION_DATE  = 
ORIGINATOR     = 

OBJECT_NAME    = HRC MONOBLOCK CAMERA
OBJECT_ID      = 1998-067XR
CENTER_NAME    = EARTH
REF_FRAME      = TEME
TIME_SYSTEM    = UTC
MEAN_ELEMENT_THEORY = SGP/SGP4

EPOCH          = 2026-01-30T00:17:06.345600
MEAN_MOTION    = 15.58259127
ECCENTRICITY   = .0000297
INCLINATION    = 51.6287
RA_OF_ASC_NODE = 260.1380
ARG_OF_PERICENTER = 44.3397
MEAN_ANOMALY   = 315.7619

EPHEMERIS_TYPE = 0
CLASSIFICATION_TYPE = U
NORAD_CAT_ID   = 66052
ELEMENT_SET_NO = 999
REV_AT_EPOCH   = 1635
BSTAR          = .65514446E-3
MEAN_MOTION_DOT = .50362E-3
MEAN_MOTION_DDOT = 0

CCSDS_OMM_VERS = 2.0
CREATION_DATE  = 
ORIGINATOR     = 

OBJECT_NAME    = HTV-X1
OBJECT_ID      = 2025-241A
CENTER_NAME    = EARTH
REF_FRAME      = TEME
TIME_SYSTEM    = UTC
MEAN_ELEMENT_THEORY = SGP/SGP4

EPOCH          = 2026-01-30T01:08:56.736096
MEAN_MOTION    = 15.48278961
ECCENTRICITY   = .00111123
INCLINATION    = 51.6320
RA_OF_ASC_NODE = 263.3752
ARG_OF_PERICENTER = 44.5726
MEAN_ANOMALY   = 315.6154

EPHEMERIS_TYPE = 0
CLASSIFICATION_TYPE = U
NORAD_CAT_ID   = 66174
ELEMENT_SET_NO = 999
REV_AT_EPOCH   = 51
BSTAR          = .20299862E-3
MEAN_MOTION_DOT = .10491E-3
MEAN_MOTION_DDOT = 0

CCSDS_OMM_VERS = 2.0
CREATION_DATE  = 
ORIGINATOR     = 

OBJECT_NAME    = SHENZHOU-22
OBJECT_ID      = 2025-272A
CENTER_NAME    = EARTH
REF_FRAME      = TEME
TIME_SYSTEM    = UTC
MEAN_ELEMENT_THEORY = SGP/SGP4

EPOCH          = 2026-01-30T04:06:26.862336
MEAN_MOTION    = 15.61350410
ECCENTRICITY   = .00090867
INCLINATION    = 41.4674
RA_OF_ASC_NODE = 82.2287
ARG_OF_PERICENTER = 36.5911
MEAN_ANOMALY   = 323.5548

EPHEMERIS_TYPE = 0
CLASSIFICATION_TYPE = U
NORAD_CAT_ID   = 66645
ELEMENT_SET_NO = 999
REV_AT_EPOCH   = 26764
BSTAR          = .3748084E-3
MEAN_MOTION_DOT = .3269E-3
MEAN_MOTION_DDOT = 0

CCSDS_OMM_VERS = 2.0
CREATION_DATE  = 
ORIGINATOR     = 

OBJECT_NAME    = DUPLEX
OBJECT_ID      = 1998-067XS
CENTER_NAME    = EARTH
REF_FRAME      = TEME
TIME_SYSTEM    = UTC
MEAN_ELEMENT_THEORY = SGP/SGP4

EPOCH          = 2026-01-29T23:00:08.224128
MEAN_MOTION    = 15.53508379
ECCENTRICITY   = .00015884
INCLINATION    = 51.6306
RA_OF_ASC_NODE = 262.7795
ARG_OF_PERICENTER = 77.7808
MEAN_ANOMALY   = 282.3361

EPHEMERIS_TYPE = 0
CLASSIFICATION_TYPE = U
NORAD_CAT_ID   = 66906
ELEMENT_SET_NO = 999
REV_AT_EPOCH   = 910
BSTAR          = .56511258E-3
MEAN_MOTION_DOT = .36265E-3
MEAN_MOTION_DDOT = 0

CCSDS_OMM_VERS = 2.0
CREATION_DATE  = 
ORIGINATOR     = 

OBJECT_NAME    = 1998-067XT
OBJECT_ID      = 1998-067XT
CENTER_NAME    = EARTH
REF_FRAME      = TEME
TIME_SYSTEM    = UTC
MEAN_ELEMENT_THEORY = SGP/SGP4

EPOCH          = 2026-01-30T01:15:32.786784
MEAN_MOTION    = 15.59567514
ECCENTRICITY   = .00030003
INCLINATION    = 51.6279
RA_OF_ASC_NODE = 261.1573
ARG_OF_PERICENTER = 153.2105
MEAN_ANOMALY   = 206.9043

EPHEMERIS_TYPE = 0
CLASSIFICATION_TYPE = U
NORAD_CAT_ID   = 66907
ELEMENT_SET_NO = 999
REV_AT_EPOCH   = 913
BSTAR          = .13574162E-2
MEAN_MOTION_DOT = .111088E-2
MEAN_MOTION_DDOT = 0

